DMSP 5D-3 F16 (USA 172) 
1 28054U 03048A   26100.55822272  .00000083  00000+0  66795-4 0  9993
2 28054  98.9953 123.9216 0006692 347.8867 164.4365 14.14474168159929
METEOSAT-9 (MSG-2)      
1 28912U 05049B   26100.03232204  .00000130  00000+0  00000+0 0  9997
2 28912   9.2081  54.8199 0000743 345.9254 214.8772  1.00271685  6317
DMSP 5D-3 F17 (USA 191) 
1 29522U 06050A   26100.28645212  .00000169  00000+0  10971-3 0  9996
2 29522  98.7406 108.2409 0008966 247.6095 112.4129 14.14978766  2827
FENGYUN 3A              
1 32958U 08026A   26100.45323677  .00000103  00000+0  69430-4 0  9998
2 32958  98.6837  42.5715 0008163 330.0835  29.9874 14.19556659925796
GOES 14                 
1 35491U 09033A   26100.53787986  .00000027  00000+0  00000+0 0  9996
2 35491   1.5144  83.8495 0001802 304.8931 183.4309  1.00113512  5912
DMSP 5D-3 F18 (USA 210) 
1 35951U 09057A   26100.46499483  .00000275  00000+0  16536-3 0  9997
2 35951  98.9004  81.3977 0012247  83.9498 276.3070 14.14857593850013
EWS-G2 (GOES 15)        
1 36411U 10008A   26100.46368691  .00000024  00000+0  00000+0 0  9990
2 36411   1.0980  84.1600 0003641  19.5866 325.1458  1.00271800 58957
COMS 1                  
1 36744U 10032A   26100.26263727 -.00000340  00000+0  00000+0 0  9990
2 36744   4.6286  76.2875 0001441 338.5893   6.3150  1.00270244 50400
FENGYUN 3B              
1 37214U 10059A   26100.57373284  .00000449  00000+0  25545-3 0  9990
2 37214  98.9698 146.2792 0022460  21.1112 135.6778 14.14827404797860
SUOMI NPP               
1 37849U 11061A   26100.53258301  .00000090  00000+0  63860-4 0  9991
2 37849  98.7907  41.8887 0002281 132.3551 227.7819 14.19502690748846
METEOSAT-10 (MSG-3)     
1 38552U 12035B   26100.23724382 -.00000002  00000+0  00000+0 0  9995
2 38552   4.5107  61.2964 0002292 299.0808 283.6092  1.00274333 50177
METOP-B                 
1 38771U 12049A   26100.47298300  .00000091  00000+0  61258-4 0  9999
2 38771  98.6576 153.3015 0002751 157.3228 202.8072 14.21429442703644
INSAT-3D                
1 39216U 13038B   26100.47677362 -.00000336  00000+0  00000+0 0  9998
2 39216   1.7502  83.3765 0001373 265.1343 151.3481  1.00273502 46405
FENGYUN 3C              
1 39260U 13052A   26100.47943220  .00000099  00000+0  71462-4 0  9992
2 39260  98.4937  77.4826 0013910 214.6261 145.4009 14.15739367648986
METEOR-M 2              
1 40069U 14037A   26100.57065387  .00000130  00000+0  78659-4 0  9996
2 40069  98.5075  78.7232 0004729 226.4122 133.6663 14.21441834609718
HIMAWARI-8              
1 40267U 14060A   26100.47902698 -.00000274  00000+0  00000+0 0  9996
2 40267   0.0247 101.8968 0000947 267.4939 142.4398  1.00271710 42081
FENGYUN 2G              
1 40367U 14090A   26100.47088028 -.00000298  00000+0  00000+0 0  9998
2 40367   5.4674  73.6184 0002628 143.3614 250.7804  1.00280631 41324
METEOSAT-11 (MSG-4)     
1 40732U 15034A   26100.31039080  .00000067  00000+0  00000+0 0  9993
2 40732   3.0319  71.4629 0001750 287.6669 320.5569  1.00277760  6534
ELEKTRO-L 2             
1 41105U 15074A   26100.48117924 -.00000111  00000+0  00000+0 0  9995
2 41105   6.5241  71.3411 0002403 262.2626  23.8651  1.00272374 37824
INSAT-3DR               
1 41752U 16054A   26099.84767017 -.00000076  00000+0  00000+0 0  9993
2 41752   0.0713  85.4677 0011759 196.6561 295.1480  1.00271970 35134
HIMAWARI-9              
1 41836U 16064A   26100.19382365 -.00000273  00000+0  00000+0 0  9996
2 41836   0.0201 163.3789 0001526 244.2110   1.3817  1.00270983 34526
GOES 16                 
1 41866U 16071A   26100.50171772 -.00000089  00000+0  00000+0 0  9995
2 41866   0.1790  85.0475 0001663 251.0904 298.5239  1.00272165 34425
FENGYUN 4A              
1 41882U 16077A   26100.47564697 -.00000354  00000+0  00000+0 0  9992
2 41882   2.1505  80.9606 0007824 138.4391 274.2923  1.00276024 34252
CYGFM05                 
1 41884U 16078A   26100.39202106  .00023657  00000+0  35560-3 0  9993
2 41884  34.9588 348.5149 0008041 241.5073 118.4841 15.53838567518195
CYGFM04                 
1 41885U 16078B   26100.29984845  .00028855  00000+0  37248-3 0  9990
2 41885  34.9340 319.9448 0007584 278.6722  81.3144 15.57916174518390
CYGFM02                 
1 41886U 16078C   26100.28355128  .00032825  00000+0  38843-3 0  9990
2 41886  34.9420 316.2680 0008638 278.4808  81.4938 15.60171882518544
CYGFM01                 
1 41887U 16078D   26100.08711258  .00023534  00000+0  34651-3 0  9999
2 41887  34.9418 352.1008 0007537 233.3851 126.6180 15.54408519518094
CYGFM08                 
1 41888U 16078E   26100.34601102  .00027226  00000+0  36810-3 0  9996
2 41888  34.9449 331.6030 0009429 260.8643  99.1014 15.56672401518389
CYGFM07                 
1 41890U 16078G   26100.30906132  .00027414  00000+0  36981-3 0  9994
2 41890  34.9461 320.2430 0008000 277.7861  82.1954 15.56746368518409
CYGFM03                 
1 41891U 16078H   26100.02356395  .00025334  00000+0  34210-3 0  9996
2 41891  34.9416 324.0976 0007075 265.2407  94.7509 15.56738942518332
FENGYUN 3D              
1 43010U 17072A   26100.49119821  .00000033  00000+0  37256-4 0  9991
2 43010  99.0083  73.7106 0000580 207.8243 152.2901 14.19724461435384
NOAA 20 (JPSS-1)        
1 43013U 17073A   26100.47614763  .00000070  00000+0  54011-4 0  9997
2 43013  98.7727  40.5547 0002116  94.6495 265.4923 14.19544720434868
GOES 17                 
1 43226U 18022A   26100.50475105 -.00000181  00000+0  00000+0 0  9995
2 43226   0.7629  86.6969 0000986 269.7267 294.5333  1.00271899 29747
FENGYUN 2H              
1 43491U 18050A   26100.53811787 -.00000125  00000+0  00000+0 0  9991
2 43491   2.8566  79.8474 0001394 157.5587 234.1467  1.00276666 28768
METOP-C                 
1 43689U 18087A   26100.49588685  .00000086  00000+0  59207-4 0  9996
2 43689  98.6703 161.3187 0001578  57.1349 302.9980 14.21508093385215
GEO-KOMPSAT-2A          
1 43823U 18100A   26100.26263727 -.00000342  00000+0  00000+0 0  9992
2 43823   0.0438  43.0752 0002093  23.7056 354.5406  1.00271805 26947
METEOR-M2 2             
1 44387U 19038A   26100.52690360  .00000030  00000+0  33042-4 0  9995
2 44387  98.9128  86.8266 0000980 154.9540 205.1686 14.24346575351666
ARKTIKA-M 1             
1 47719U 21016A   26097.71156402 -.00000124  00000+0  00000+0 0  9994
2 47719  63.2167  67.7774 7259502 269.6087  15.0484  2.00615502 37374
FENGYUN 3E              
1 49008U 21062A   26100.48281896  .00000399  00000+0  20847-3 0  9991
2 49008  98.7519 104.6440 0000643 317.5782  42.5344 14.19899587246978
GOES 18                 
1 51850U 22021A   26100.49530434  .00000098  00000+0  00000+0 0  9992
2 51850   0.0319  51.8832 0000774  37.5193 150.6293  1.00271186  5914
NOAA 21 (JPSS-2)        
1 54234U 22150A   26100.29904453  .00000077  00000+0  57453-4 0  9994
2 54234  98.7590  40.2100 0002504  51.4004 308.7396 14.19560952176912
METEOSAT-12 (MTG-I1)    
1 54743U 22170C   26100.23724383 -.00000004  00000+0  00000+0 0  9999
2 54743   0.7467  27.3091 0001361 305.9469 310.3822  1.00275627 12291
TIANMU-1 03             
1 55973U 23039A   26100.29578167  .00016094  00000+0  33848-3 0  9998
2 55973  97.5212 271.7175 0002621   7.0975 353.0310 15.45392717170340
TIANMU-1 04             
1 55974U 23039B   26100.30995272  .00016687  00000+0  34453-3 0  9992
2 55974  97.5149 270.8856 0003126 356.0486   4.0737 15.45926844170352
TIANMU-1 05             
1 55975U 23039C   26100.27360574  .00016305  00000+0  34358-3 0  9991
2 55975  97.5194 271.3341 0002906  29.8081 330.3333 15.45332399170329
TIANMU-1 06             
1 55976U 23039D   26100.30978418  .00016410  00000+0  33964-3 0  9997
2 55976  97.5204 271.9413 0003071  21.0308 339.1066 15.45859085170357
FENGYUN 3G              
1 56232U 23055A   26100.16384713  .00028453  00000+0  43841-3 0  9999
2 56232  49.9942 336.7517 0003698  68.1044 292.0316 15.53895299169430
METEOR-M2 3             
1 57166U 23091A   26100.29524118 -.00000002  00000+0  18060-4 0  9992
2 57166  98.6149 156.6416 0004202  24.8070 335.3310 14.24041134144856
TIANMU-1 07             
1 57399U 23101A   26100.18939654  .00006780  00000+0  24042-3 0  9999
2 57399  97.2663 152.4295 0003882  67.2329 292.9322 15.29391477151257
TIANMU-1 08             
1 57400U 23101B   26100.09134931  .00000257  00000+0  11525-4 0  9993
2 57400  97.2656 152.1121 0004577  42.6514 317.5081 15.29469236151235
TIANMU-1 09             
1 57401U 23101C   26100.86038955  .00006648  00000+0  23568-3 0  9997
2 57401  97.2612 152.3167 0004214  62.2444 297.9223 15.29403682151353
TIANMU-1 10             
1 57402U 23101D   26100.30404748  .00006960  00000+0  24634-3 0  9996
2 57402  97.2690 152.7532 0005316  47.0990 313.0697 15.29439064151269
FENGYUN 3F              
1 57490U 23111A   26100.25678086  .00000040  00000+0  39316-4 0  9993
2 57490  98.6870 171.5200 0000770  94.2491 265.8773 14.19927246139224
ARKTIKA-M 2             
1 58584U 23198A   26091.99129222  .00000155  00000+0  00000+0 0  9996
2 58584  63.2180 162.8290 6883118 267.6735  18.8443  2.00607379 16796
TIANMU-1 11             
1 58645U 23205A   26100.27912609  .00005741  00000+0  22381-3 0  9990
2 58645  97.3511 122.9206 0007379 236.8469 123.2062 15.26316740127160
TIANMU-1 12             
1 58646U 23205B   26100.31293963  .00005636  00000+0  22021-3 0  9995
2 58646  97.3500 122.7248 0006156 214.0221 146.0624 15.26257757127157
TIANMU-1 13             
1 58647U 23205C   26100.27722186  .00005912  00000+0  23044-3 0  9998
2 58647  97.3527 122.9423 0007044 194.3194 165.7846 15.26308460127141
TIANMU-1 14             
1 58648U 23205D   26100.32788050  .00005953  00000+0  23218-3 0  9995
2 58648  97.3462 122.2325 0007585 200.1284 159.9657 15.26282698127150
TIANMU-1 19             
1 58660U 23208A   26100.31526837  .00009369  00000+0  31978-3 0  9991
2 58660  97.4413 216.3569 0005111 181.1924 178.9306 15.30533898126942
TIANMU-1 20             
1 58661U 23208B   26100.27511082  .00009580  00000+0  31507-3 0  9996
2 58661  97.4355 216.8822 0006962 194.4943 165.6100 15.31718772127020
TIANMU-1 21             
1 58662U 23208C   26100.29631781  .00010927  00000+0  33586-3 0  9994
2 58662  97.4412 219.3014 0007046 189.3826 170.7286 15.33848505127159
TIANMU-1 22             
1 58663U 23208D   26100.27593720  .00008763  00000+0  30342-3 0  9995
2 58663  97.4409 216.3068 0003242 199.7665 160.3450 15.30095569126947
TIANMU-1 15             
1 58700U 24004A   26100.25972453  .00006507  00000+0  25343-3 0  9993
2 58700  97.4684 286.4675 0006098 218.3655 141.7150 15.26311248125416
TIANMU-1 16             
1 58701U 24004B   26100.30802369  .00006314  00000+0  24576-3 0  9991
2 58701  97.4629 285.8167 0004517 218.4407 141.6510 15.26349797125425
TIANMU-1 17             
1 58702U 24004C   26100.29047549  .00005978  00000+0  23391-3 0  9990
2 58702  97.4659 286.2653 0004293 225.0669 135.0221 15.26199591125419
TIANMU-1 18             
1 58703U 24004D   26100.27603356  .00006103  00000+0  23795-3 0  9992
2 58703  97.4677 286.4690 0003153 212.9415 147.1627 15.26316356125415
INSAT-3DS               
1 58990U 24033A   26100.46017144 -.00000154  00000+0  00000+0 0  9998
2 58990   0.0522  86.2449 0002163 300.1153  60.0615  1.00271035 46388
METEOR-M2 4             
1 59051U 24039A   26100.30323758  .00000040  00000+0  37614-4 0  9996
2 59051  98.6958  60.4769 0007357  15.5132 344.6270 14.22422387109616
GOES 19                 
1 60133U 24119A   26100.28360894 -.00000247  00000+0  00000+0 0  9991
2 60133   0.0465  47.3526 0001019  23.0640 154.9981  1.00270573  6281
FENGYUN 3H              
1 65815U 25219A   26100.46413078  .00000059  00000+0  47948-4 0  9995
2 65815  98.6724  42.5668 0000677  79.9964 280.1289 14.19941377 27777
